NORAD_CAT_ID,OBJECT_NAME,OBJECT_TYPE,EPOCH,MEAN_MOTION,ECCENTRICITY,INCLINATION,RA_OF_ASC_NODE,ARG_OF_PERICENTER,MEAN_ANOMALY,BSTAR,MEAN_MOTION_DOT,MEAN_MOTION_DDOT,TLE_LINE0,TLE_LINE1,TLE_LINE2,SEMIMAJOR_AXIS,PERIOD,APOGEE,PERIGEE,DECAYED
53610.0,STARLINK-4610,PAYLOAD,2024-08-14 20:12:01,15.08858054,0.0001614,53.2156,281.373,59.1384,300.9767,0.0011121,0.00017464,0.0,0 STARLINK-4610,1 53610U 22104Y   24227.84168250  .00017464  00000-0  11121-2 0  9995,2 53610  53.2156 281.3730 0001614  59.1384 300.9767 15.08858054108730,6917.825,95.436,540.807,538.574,0.0
53610.0,STARLINK-4610,PAYLOAD,2024-08-15 13:41:14,15.08883531,0.0001645,53.2155,278.1022,60.0202,300.0953,0.00085445,0.00013353,0.0,0 STARLINK-4610,1 53610U 22104Y   24228.57030450  .00013353  00000-0  85445-3 0  9990,2 53610  53.2155 278.1022 0001645  60.0202 300.0953 15.08883531109413,6917.747,95.435,540.75,538.474,0.0
53610.0,STARLINK-4610,PAYLOAD,2024-08-15 20:02:46,15.08856822,0.0001524,53.2154,276.9131,56.7409,303.3729,-0.00011154,-2.064e-05,0.0,0 STARLINK-4610,1 53610U 22104Y   24228.83526532 -.00002064  00000-0 -11154-3 0  9995,2 53610  53.2154 276.9131 0001524  56.7409 303.3729 15.08856822108886,6917.829,95.436,540.748,538.64,0.0
53610.0,STARLINK-4610,PAYLOAD,2024-08-16 13:32:01,15.08850752,0.0001525,53.215,273.642,67.5509,292.5644,0.0002785,4.148e-05,0.0,0 STARLINK-4610,1 53610U 22104Y   24229.56390326  .00004148  00000-0  27850-3 0  9999,2 53610  53.2150 273.6420 0001525  67.5509 292.5644 15.08850752109566,6917.848,95.437,540.767,538.658,0.0
53610.0,STARLINK-4610,PAYLOAD,2024-08-16 21:28:56,15.0885118,0.0001498,53.2148,272.1552,70.0286,290.0867,0.00051048,7.848e-05,0.0,0 STARLINK-4610,1 53610U 22104Y   24229.89510208  .00007848  00000-0  51048-3 0  9994,2 53610  53.2148 272.1552 0001498  70.0286 290.0867 15.08851180109615,6917.846,95.437,540.748,538.675,0.0
53610.0,STARLINK-4610,PAYLOAD,2024-08-17 03:50:29,15.08843134,0.000154,53.2147,270.966,66.7084,293.4071,-1.4583e-05,-5.2e-06,0.0,0 STARLINK-4610,1 53610U 22104Y   24230.16006528 -.00000520  00000-0 -14583-4 0  9997,2 53610  53.2147 270.9660 0001540  66.7084 293.4071 15.08843134109081,6917.871,95.437,540.801,538.67,0.0
53610.0,STARLINK-4610,PAYLOAD,2024-08-17 11:47:25,15.08846828,0.0001511,53.2146,269.4789,71.4071,288.7085,0.00019121,2.757e-05,0.0,0 STARLINK-4610,1 53610U 22104Y   24230.49126437  .00002757  00000-0  19121-3 0  9999,2 53610  53.2146 269.4789 0001511  71.4071 288.7085 15.08846828109706,6917.86,95.437,540.77,538.679,0.0
53610.0,STARLINK-4610,PAYLOAD,2024-08-17 21:19:44,15.0884451,0.0001498,53.2143,267.6945,72.6342,287.4814,0.00022692,3.326e-05,0.0,0 STARLINK-4610,1 53610U 22104Y   24230.88870525  .00003326  00000-0  22692-3 0  9996,2 53610  53.2143 267.6945 0001498  72.6342 287.4814 15.08844510109763,6917.867,95.437,540.768,538.695,0.0
53610.0,STARLINK-4610,PAYLOAD,2024-08-18 03:41:16,15.08846237,0.0001509,53.2143,266.5048,73.5513,286.5645,0.00025632,3.794e-05,0.0,0 STARLINK-4610,1 53610U 22104Y   24231.15366458  .00003794  00000-0  25632-3 0  9998,2 53610  53.2143 266.5048 0001509  73.5513 286.5645 15.08846237109803,6917.861,95.437,540.77,538.682,0.0
53610.0,STARLINK-4610,PAYLOAD,2024-08-18 11:38:11,15.08852152,0.0001524,53.2142,265.018,73.5946,286.5214,0.0003109,4.665e-05,0.0,0 STARLINK-4610,1 53610U 22104Y   24231.48486099  .00004665  00000-0  31090-3 0  9991,2 53610  53.2142 265.0180 0001524  73.5946 286.5214 15.08852152109287,6917.843,95.437,540.763,538.654,0.0
53610.0,STARLINK-4610,PAYLOAD,2024-08-18 14:48:58,15.08853813,0.0001523,53.2141,264.4232,73.5267,286.5892,0.0003216,4.836e-05,0.0,0 STARLINK-4610,1 53610U 22104Y   24231.61733962  .00004836  00000-0  32160-3 0  9999,2 53610  53.2141 264.4232 0001523  73.5267 286.5892 15.08853813109874,6917.838,95.437,540.757,538.65,0.0
53610.0,STARLINK-4610,PAYLOAD,2024-08-19 11:28:59,15.08839795,0.0001475,53.2143,260.5572,78.9763,281.1395,7.1638e-05,8.52e-06,0.0,0 STARLINK-4610,1 53610U 22104Y   24232.47846642  .00000852  00000-0  71638-4 0  9992,2 53610  53.2143 260.5572 0001475  78.9763 281.1395 15.08839795109430,6917.881,95.438,540.766,538.726,0.0
53610.0,STARLINK-4610,PAYLOAD,2024-08-20 08:08:59,15.08847968,0.0001441,53.2141,256.6907,84.057,276.0586,0.00016396,2.323e-05,0.0,0 STARLINK-4610,1 53610U 22104Y   24233.33958245  .00002323  00000-0  16396-3 0  9995,2 53610  53.2141 256.6907 0001441  84.0570 276.0586 15.08847968110138,6917.856,95.437,540.718,538.724,0.0
53610.0,STARLINK-4610,PAYLOAD,2024-08-21 04:49:00,15.08841823,0.0001528,53.2136,252.8246,85.5018,274.6149,0.00015452,2.172e-05,0.0,0 STARLINK-4610,1 53610U 22104Y   24234.20070560  .00002172  00000-0  15452-3 0  9991,2 53610  53.2136 252.8246 0001528  85.5018 274.6149 15.08841823109697,6917.875,95.437,540.797,538.683,0.0
53610.0,STARLINK-4610,PAYLOAD,2024-08-21 11:10:33,15.08842457,0.0001523,53.2139,251.6351,86.2229,273.8937,0.00014895,2.084e-05,0.0,0 STARLINK-4610,1 53610U 22104Y   24234.46566528  .00002084  00000-0  14895-3 0  9995,2 53610  53.2139 251.6351 0001523  86.2229 273.8937 15.08842457110301,6917.873,95.437,540.791,538.684,0.0
